TIGRISAT                
1 40043U 14033AK  26095.14182007  .00003002  00000+0  35222-3 0  9998
2 40043  97.7728 246.8817 0048467 315.3180  44.4134 14.84863942634786
AEROCUBE 6A             
1 40045U 14033AM  26094.99845484  .00009029  00000+0  77281-3 0  9993
2 40045  97.7160 262.7956 0038013 259.6565 100.0371 14.97253969635668
AEROCUBE 6B             
1 40046U 14033AN  26095.20433320  .00010270  00000+0  84776-3 0  9998
2 40046  97.7144 262.6412 0036303 249.3838 110.3490 14.98665228635826
CANX-4                  
1 40055U 14034C   26095.19383739  .00001559  00000+0  20784-3 0  9994
2 40055  98.3228 327.7920 0011580 243.5869 116.4154 14.81132609633728
CANX-5                  
1 40056U 14034D   26095.19310990  .00001566  00000+0  20866-3 0  9993
2 40056  98.3230 327.8305 0011595 243.8317 116.1702 14.81149489624536
UKUBE-1                 
1 40074U 14037F   26095.21970635  .00012101  00000+0  70056-3 0  9990
2 40074  98.4247  90.8980 0003011  74.4610 285.6950 15.12405864637526
BRITE-PL2 (HEWELIUSZ)   
1 40119U 14049B   26095.25797631  .00003922  00000+0  36970-3 0  9998
2 40119  97.9006 206.7466 0013771 358.1861   1.9307 14.94328731630551
AEROCUBE 5C             
1 40965U 15058B   26095.27386781  .00003222  00000+0  29162-3 0  9998
2 40965  64.7657 129.3443 0129679  91.9235 269.6734 14.91039990354789
AEROCUBE 7              
1 40966U 15058C   26095.27389257  .00004888  00000+0  39887-3 0  9994
2 40966  64.7608 113.0907 0119571  90.8041 270.6775 14.95140801355050
FOX-1A (AO-85)          
1 40967U 15058D   26095.29740448  .00003212  00000+0  29544-3 0  9999
2 40967  64.7743 145.4238 0128308  85.2285 276.3465 14.90545783102707
SINOD-D 1               
1 40968U 15058E   26095.19343962  .00004804  00000+0  39302-3 0  9990
2 40968  64.7736 127.3918 0116776  82.2901 279.1455 14.95307955105741
SNAP-3 ALICE            
1 40970U 15058G   26095.16764763  .00101742  00000+0  18666-2 0  9994
2 40970  64.7565 353.7898 0032987  59.5252 300.9139 15.48112999105544
LMRST-SAT               
1 40971U 15058H   26095.30153118  .00003219  00000+0  29749-3 0  9992
2 40971  64.7747 141.6132 0130311  87.2594 274.3425 14.90176037102693
SNAP-3 EDDIE            
1 40972U 15058J   26095.08191102  .00093826  00000+0  16597-2 0  9992
2 40972  64.7485 345.3059 0033992  64.0603 296.4034 15.49143263107668
PROPCUBE 3              
1 40973U 15058K   26095.24613116  .00004258  00000+0  35994-3 0  9999
2 40973  64.7669 120.3381 0122665  88.8990 272.6174 14.93745325103900
BISONSAT                
1 40974U 15058L   26095.30869982  .00020200  00000+0  10161-2 0  9994
2 40974  64.7610  48.9709 0078635  79.0425 281.9533 15.14571729104573
