[{"OBJECT_NAME":"TIGRISAT","OBJECT_ID":"2014-033AK","EPOCH":"2026-04-05T03:24:13.254048","MEAN_MOTION":14.84863942,"ECCENTRICITY":0.00484677,"INCLINATION":97.7728,"RA_OF_ASC_NODE":246.8817,"ARG_OF_PERICENTER":315.318,"MEAN_ANOMALY":44.4134,"EPHEMERIS_TYPE":0,"CLASSIFICATION_TYPE":"U","NORAD_CAT_ID":40043,"ELEMENT_SET_NO":999,"REV_AT_EPOCH":63478,"BSTAR":0.00035221817,"MEAN_MOTION_DOT":3.002e-5,"MEAN_MOTION_DDOT":0},{"OBJECT_NAME":"AEROCUBE 6A","OBJECT_ID":"2014-033AM","EPOCH":"2026-04-04T23:57:46.498176","MEAN_MOTION":14.97253969,"ECCENTRICITY":0.00380139,"INCLINATION":97.716,"RA_OF_ASC_NODE":262.7956,"ARG_OF_PERICENTER":259.6565,"MEAN_ANOMALY":100.0371,"EPHEMERIS_TYPE":0,"CLASSIFICATION_TYPE":"U","NORAD_CAT_ID":40045,"ELEMENT_SET_NO":999,"REV_AT_EPOCH":63566,"BSTAR":0.00077281368,"MEAN_MOTION_DOT":9.029e-5,"MEAN_MOTION_DDOT":0},{"OBJECT_NAME":"AEROCUBE 6B","OBJECT_ID":"2014-033AN","EPOCH":"2026-04-05T04:54:14.388480","MEAN_MOTION":14.98665228,"ECCENTRICITY":0.00363034,"INCLINATION":97.7144,"RA_OF_ASC_NODE":262.6412,"ARG_OF_PERICENTER":249.3838,"MEAN_ANOMALY":110.349,"EPHEMERIS_TYPE":0,"CLASSIFICATION_TYPE":"U","NORAD_CAT_ID":40046,"ELEMENT_SET_NO":999,"REV_AT_EPOCH":63582,"BSTAR":0.00084775586,"MEAN_MOTION_DOT":0.0001027,"MEAN_MOTION_DDOT":0},{"OBJECT_NAME":"CANX-4","OBJECT_ID":"2014-034C","EPOCH":"2026-04-05T04:39:07.550496","MEAN_MOTION":14.81132609,"ECCENTRICITY":0.00115806,"INCLINATION":98.3228,"RA_OF_ASC_NODE":327.792,"ARG_OF_PERICENTER":243.5869,"MEAN_ANOMALY":116.4154,"EPHEMERIS_TYPE":0,"CLASSIFICATION_TYPE":"U","NORAD_CAT_ID":40055,"ELEMENT_SET_NO":999,"REV_AT_EPOCH":63372,"BSTAR":0.0002078397,"MEAN_MOTION_DOT":1.559e-5,"MEAN_MOTION_DDOT":0},{"OBJECT_NAME":"CANX-5","OBJECT_ID":"2014-034D","EPOCH":"2026-04-05T04:38:04.695360","MEAN_MOTION":14.81149489,"ECCENTRICITY":0.00115955,"INCLINATION":98.323,"RA_OF_ASC_NODE":327.8305,"ARG_OF_PERICENTER":243.8317,"MEAN_ANOMALY":116.1702,"EPHEMERIS_TYPE":0,"CLASSIFICATION_TYPE":"U","NORAD_CAT_ID":40056,"ELEMENT_SET_NO":999,"REV_AT_EPOCH":62453,"BSTAR":0.00020865588,"MEAN_MOTION_DOT":1.566e-5,"MEAN_MOTION_DDOT":0},{"OBJECT_NAME":"UKUBE-1","OBJECT_ID":"2014-037F","EPOCH":"2026-04-05T05:16:22.628640","MEAN_MOTION":15.12405864,"ECCENTRICITY":0.00030118,"INCLINATION":98.4247,"RA_OF_ASC_NODE":90.898,"ARG_OF_PERICENTER":74.461,"MEAN_ANOMALY":285.695,"EPHEMERIS_TYPE":0,"CLASSIFICATION_TYPE":"U","NORAD_CAT_ID":40074,"ELEMENT_SET_NO":999,"REV_AT_EPOCH":63752,"BSTAR":0.00070056039,"MEAN_MOTION_DOT":0.00012101,"MEAN_MOTION_DDOT":0},{"OBJECT_NAME":"BRITE-PL2 (HEWELIUSZ)","OBJECT_ID":"2014-049B","EPOCH":"2026-04-05T06:11:29.153184","MEAN_MOTION":14.94328731,"ECCENTRICITY":0.00137718,"INCLINATION":97.9006,"RA_OF_ASC_NODE":206.7466,"ARG_OF_PERICENTER":358.1861,"MEAN_ANOMALY":1.9307,"EPHEMERIS_TYPE":0,"CLASSIFICATION_TYPE":"U","NORAD_CAT_ID":40119,"ELEMENT_SET_NO":999,"REV_AT_EPOCH":63055,"BSTAR":0.0003696998,"MEAN_MOTION_DOT":3.922e-5,"MEAN_MOTION_DDOT":0},{"OBJECT_NAME":"AEROCUBE 5C","OBJECT_ID":"2015-058B","EPOCH":"2026-04-05T06:34:22.178784","MEAN_MOTION":14.9103999,"ECCENTRICITY":0.01296791,"INCLINATION":64.7657,"RA_OF_ASC_NODE":129.3443,"ARG_OF_PERICENTER":91.9235,"MEAN_ANOMALY":269.6734,"EPHEMERIS_TYPE":0,"CLASSIFICATION_TYPE":"U","NORAD_CAT_ID":40965,"ELEMENT_SET_NO":999,"REV_AT_EPOCH":35478,"BSTAR":0.00029161766,"MEAN_MOTION_DOT":3.222e-5,"MEAN_MOTION_DDOT":0},{"OBJECT_NAME":"AEROCUBE 7","OBJECT_ID":"2015-058C","EPOCH":"2026-04-05T06:34:24.318048","MEAN_MOTION":14.95140801,"ECCENTRICITY":0.01195717,"INCLINATION":64.7608,"RA_OF_ASC_NODE":113.0907,"ARG_OF_PERICENTER":90.8041,"MEAN_ANOMALY":270.6775,"EPHEMERIS_TYPE":0,"CLASSIFICATION_TYPE":"U","NORAD_CAT_ID":40966,"ELEMENT_SET_NO":999,"REV_AT_EPOCH":35505,"BSTAR":0.00039886943,"MEAN_MOTION_DOT":4.888e-5,"MEAN_MOTION_DDOT":0},{"OBJECT_NAME":"FOX-1A (AO-85)","OBJECT_ID":"2015-058D","EPOCH":"2026-04-05T07:08:15.747072","MEAN_MOTION":14.90545783,"ECCENTRICITY":0.01283083,"INCLINATION":64.7743,"RA_OF_ASC_NODE":145.4238,"ARG_OF_PERICENTER":85.2285,"MEAN_ANOMALY":276.3465,"EPHEMERIS_TYPE":0,"CLASSIFICATION_TYPE":"U","NORAD_CAT_ID":40967,"ELEMENT_SET_NO":999,"REV_AT_EPOCH":10270,"BSTAR":0.00029543569,"MEAN_MOTION_DOT":3.212e-5,"MEAN_MOTION_DDOT":0},{"OBJECT_NAME":"SINOD-D 1","OBJECT_ID":"2015-058E","EPOCH":"2026-04-05T04:38:33.183168","MEAN_MOTION":14.95307955,"ECCENTRICITY":0.01167768,"INCLINATION":64.7736,"RA_OF_ASC_NODE":127.3918,"ARG_OF_PERICENTER":82.2901,"MEAN_ANOMALY":279.1455,"EPHEMERIS_TYPE":0,"CLASSIFICATION_TYPE":"U","NORAD_CAT_ID":40968,"ELEMENT_SET_NO":999,"REV_AT_EPOCH":10574,"BSTAR":0.00039302297,"MEAN_MOTION_DOT":4.804e-5,"MEAN_MOTION_DDOT":0},{"OBJECT_NAME":"SNAP-3 ALICE","OBJECT_ID":"2015-058G","EPOCH":"2026-04-05T04:01:24.755232","MEAN_MOTION":15.48112999,"ECCENTRICITY":0.00329874,"INCLINATION":64.7565,"RA_OF_ASC_NODE":353.7898,"ARG_OF_PERICENTER":59.5252,"MEAN_ANOMALY":300.9139,"EPHEMERIS_TYPE":0,"CLASSIFICATION_TYPE":"U","NORAD_CAT_ID":40970,"ELEMENT_SET_NO":999,"REV_AT_EPOCH":10554,"BSTAR":0.0018665516,"MEAN_MOTION_DOT":0.00101742,"MEAN_MOTION_DDOT":0},{"OBJECT_NAME":"LMRST-SAT","OBJECT_ID":"2015-058H","EPOCH":"2026-04-05T07:14:12.293952","MEAN_MOTION":14.90176037,"ECCENTRICITY":0.01303113,"INCLINATION":64.7747,"RA_OF_ASC_NODE":141.6132,"ARG_OF_PERICENTER":87.2594,"MEAN_ANOMALY":274.3425,"EPHEMERIS_TYPE":0,"CLASSIFICATION_TYPE":"U","NORAD_CAT_ID":40971,"ELEMENT_SET_NO":999,"REV_AT_EPOCH":10269,"BSTAR":0.00029748525,"MEAN_MOTION_DOT":3.219e-5,"MEAN_MOTION_DDOT":0},{"OBJECT_NAME":"SNAP-3 EDDIE","OBJECT_ID":"2015-058J","EPOCH":"2026-04-05T01:57:57.112128","MEAN_MOTION":15.49143263,"ECCENTRICITY":0.00339928,"INCLINATION":64.7485,"RA_OF_ASC_NODE":345.3059,"ARG_OF_PERICENTER":64.0603,"MEAN_ANOMALY":296.4034,"EPHEMERIS_TYPE":0,"CLASSIFICATION_TYPE":"U","NORAD_CAT_ID":40972,"ELEMENT_SET_NO":999,"REV_AT_EPOCH":10766,"BSTAR":0.0016597273,"MEAN_MOTION_DOT":0.00093826,"MEAN_MOTION_DDOT":0},{"OBJECT_NAME":"PROPCUBE 3","OBJECT_ID":"2015-058K","EPOCH":"2026-04-05T05:54:25.732224","MEAN_MOTION":14.93745325,"ECCENTRICITY":0.01226651,"INCLINATION":64.7669,"RA_OF_ASC_NODE":120.3381,"ARG_OF_PERICENTER":88.899,"MEAN_ANOMALY":272.6174,"EPHEMERIS_TYPE":0,"CLASSIFICATION_TYPE":"U","NORAD_CAT_ID":40973,"ELEMENT_SET_NO":999,"REV_AT_EPOCH":10390,"BSTAR":0.00035994191,"MEAN_MOTION_DOT":4.258e-5,"MEAN_MOTION_DDOT":0},{"OBJECT_NAME":"BISONSAT","OBJECT_ID":"2015-058L","EPOCH":"2026-04-05T07:24:31.664448","MEAN_MOTION":15.14571729,"ECCENTRICITY":0.00786357,"INCLINATION":64.761,"RA_OF_ASC_NODE":48.9709,"ARG_OF_PERICENTER":79.0425,"MEAN_ANOMALY":281.9533,"EPHEMERIS_TYPE":0,"CLASSIFICATION_TYPE":"U","NORAD_CAT_ID":40974,"ELEMENT_SET_NO":999,"REV_AT_EPOCH":10457,"BSTAR":0.001016105,"MEAN_MOTION_DOT":0.000202,"MEAN_MOTION_DDOT":0}]
